{"type":"FeatureCollection","features":[{"geometry": {"type": "Point", "coordinates": [-75.13637712166314, 40.03801239916445]}, "type": "Feature", "id": 0, "properties": {"ADDRESS": "851 W OLNEY AVE", "LINK": "http://www.phila.gov/parksandrecreation/findafacility/RecCenterDetails.aspx?ID=720", "ZIPCODE": 19141.0, "FEATURE": "Pool", "FACILITY": "Cherashore Playground"}},{"geometry": {"type": "Point", "coordinates": [-75.11878189104998, 40.03470006635359]}, "type": "Feature", "id": 1, "properties": {"ADDRESS": "200-64 E OLNEY AVE", "LINK": "http://www.phila.gov/parksandrecreation/findafacility/RecCenterDetails.aspx?ID=857", "ZIPCODE": 19120.0, "FEATURE": "Pool", "FACILITY": "Ziehler Playground"}},{"geometry": {"type": "Point", "coordinates": [-75.22947342052994, 40.03348969646711]}, "type": "Feature", "id": 2, "properties": {"ADDRESS": "201 FOUNTAIN ST", "LINK": "http://www.phila.gov/parksandrecreation/findafacility/RecCenterDetails.aspx?ID=762", "ZIPCODE": 19128.0, "FEATURE": "Pool", "FACILITY": "Hillside Recration Center"}},{"geometry": {"type": "Point", "coordinates": [-75.04932555685987, 40.029097731649784]}, "type": "Feature", "id": 3, "properties": {"ADDRESS": "4131 UNRUH AVE", "LINK": "http://www.phila.gov/parksandrecreation/findafacility/RecCenterDetails.aspx?ID=846", "ZIPCODE": 19135.0, "FEATURE": "Pool", "FACILITY": "Vogt Recreation Center"}},{"geometry": {"type": "Point", "coordinates": [-75.21121031021654, 40.02945226728552]}, "type": "Feature", "id": 4, "properties": {"ADDRESS": "5822-24 RIDGE AVE", "LINK": "http://www.phila.gov/parksandrecreation/findafacility/RecCenterDetails.aspx?ID=771", "ZIPCODE": 19128.0, "FEATURE": "Pool", "FACILITY": "Kendrick Recreation Center"}},{"geometry": {"type": "Point", "coordinates": [-75.12095860502875, 40.02190414225396]}, "type": "Feature", "id": 5, "properties": {"ADDRESS": "231-37 E WYOMING AVE", "LINK": "http://www.phila.gov/parksandrecreation/findafacility/RecCenterDetails.aspx?ID=736", "ZIPCODE": 19120.0, "FEATURE": "Pool", "FACILITY": "Feltonville Recreation Center"}},{"geometry": {"type": "Point", "coordinates": [-75.09259193310989, 40.02122813578747]}, "type": "Feature", "id": 6, "properties": {"ADDRESS": "1010 ARROTT ST", "LINK": "http://www.phila.gov/parksandrecreation/findafacility/RecCenterDetails.aspx?ID=835", "ZIPCODE": 19124.0, "FEATURE": "Pool", "FACILITY": "Simpson Playground"}},{"geometry": {"type": "Point", "coordinates": [-75.05359717820075, 40.01876410262102]}, "type": "Feature", "id": 7, "properties": {"ADDRESS": "6201 TORRESDALE AVE", "LINK": "http://www.phila.gov/parksandrecreation/findafacility/RecCenterDetails.aspx?ID=703", "ZIPCODE": 19135.0, "FEATURE": "Pool", "FACILITY": "American Legion Playground"}},{"geometry": {"type": "Point", "coordinates": [-75.14423183512254, 40.017226825645366]}, "type": "Feature", "id": 8, "properties": {"ADDRESS": "1101 W HUNTING PARK AVE", "LINK": "http://www.phila.gov/parksandrecreation/findafacility/RecCenterDetails.aspx?ID=863", "ZIPCODE": 19140.0, "FEATURE": "Pool", "FACILITY": "Hunting Park Recreation Center"}},{"geometry": {"type": "Point", "coordinates": [-75.15405532922703, 40.01706241010161]}, "type": "Feature", "id": 9, "properties": {"ADDRESS": "W HUNTING PARK & GERMANTOWN AVE", "LINK": "http://www.phila.gov/parksandrecreation/findafacility/", "ZIPCODE": 19140.0, "FEATURE": "Pool", "FACILITY": "Marcus Foster"}},{"geometry": {"type": "Point", "coordinates": [-75.09669702339274, 40.01202577839524]}, "type": "Feature", "id": 10, "properties": {"ADDRESS": "1501 E BRISTOL ST", "LINK": "http://www.phila.gov/parksandrecreation/findafacility/RecCenterDetails.aspx?ID=813", "ZIPCODE": 19124.0, "FEATURE": "Pool", "FACILITY": "Piccoli Playground"}},{"geometry": {"type": "Point", "coordinates": [-75.12941185271777, 40.00190050488429]}, "type": "Feature", "id": 11, "properties": {"ADDRESS": "113-23 W ONTARIO ST", "LINK": "http://www.phila.gov/parksandrecreation/findafacility/RecCenterDetails.aspx?ID=828", "ZIPCODE": 19140.0, "FEATURE": "Pool", "FACILITY": "Schmidt Playground"}},{"geometry": {"type": "Point", "coordinates": [-75.10866334603372, 40.000906059594826]}, "type": "Feature", "id": 12, "properties": {"ADDRESS": "1099 E TIOGA ST", "LINK": "http://www.phila.gov/parksandrecreation/findafacility/", "ZIPCODE": 19134.0, "FEATURE": "Pool", "FACILITY": "Scanlon Recreation Center"}},{"geometry": {"type": "Point", "coordinates": [-75.17490152650315, 40.00229840054099]}, "type": "Feature", "id": 13, "properties": {"ADDRESS": "2901 N 29TH ST", "LINK": "http://www.phila.gov/parksandrecreation/findafacility/RecCenterDetails.aspx?ID=833", "ZIPCODE": 19132.0, "FEATURE": "Pool", "FACILITY": "Shuler, James Allen Playground"}},{"geometry": {"type": "Point", "coordinates": [-75.12202655705727, 40.00054843591342]}, "type": "Feature", "id": 14, "properties": {"ADDRESS": "400-64 E ONTARIO ST", "LINK": "http://www.phila.gov/parksandrecreation/findafacility/RecCenterDetails.aspx?ID=792", "ZIPCODE": 19134.0, "FEATURE": "Pool", "FACILITY": "Mcveigh Recreation Center"}},{"geometry": {"type": "Point", "coordinates": [-75.0676724398455, 39.999269953128994]}, "type": "Feature", "id": 15, "properties": {"ADDRESS": "4625 RICHMOND ST", "LINK": "http://www.phila.gov/parksandrecreation/findafacility/RecCenterDetails.aspx?ID=715", "ZIPCODE": 19137.0, "FEATURE": "Pool", "FACILITY": "Bridesburg Recreation Center"}},{"geometry": {"type": "Point", "coordinates": [-75.09794047442993, 39.9980016857646]}, "type": "Feature", "id": 16, "properties": {"ADDRESS": "2136 CASTOR AVE", "LINK": "http://www.phila.gov/parksandrecreation/findafacility/RecCenterDetails.aspx?ID=760", "ZIPCODE": 19134.0, "FEATURE": "Pool", "FACILITY": "Heitzman Playground"}},{"geometry": {"type": "Point", "coordinates": [-75.1487240957243, 39.99675039298323]}, "type": "Feature", "id": 17, "properties": {"ADDRESS": "1149 W CAMBRIA ST", "LINK": "http://www.phila.gov/parksandrecreation/findafacility/RecCenterDetails.aspx?ID=859", "ZIPCODE": 19133.0, "FEATURE": "Pool", "FACILITY": "12th & Cambria Playground"}},{"geometry": {"type": "Point", "coordinates": [-75.16562566483239, 39.99498330526634]}, "type": "Feature", "id": 18, "properties": {"ADDRESS": "2020-50 W LEHIGH AVE", "LINK": "http://www.phila.gov/parksandrecreation/findafacility/RecCenterDetails.aspx?ID=796", "ZIPCODE": 19132.0, "FEATURE": "Pool", "FACILITY": "Moore, Cecil B Recreation Center"}},{"geometry": {"type": "Point", "coordinates": [-75.03373846990142, 40.10075033498782]}, "type": "Feature", "id": 19, "properties": {"ADDRESS": "800 BARTLETT ST", "LINK": "http://www.phila.gov/parksandrecreation/findafacility/RecCenterDetails.aspx?ID=774", "ZIPCODE": 19115.0, "FEATURE": "Pool", "FACILITY": "Lackman Playground"}},{"geometry": {"type": "Point", "coordinates": [-75.08224034638508, 40.07372655843832]}, "type": "Feature", "id": 20, "properties": {"ADDRESS": "601 BORBECK AVE", "LINK": "http://www.phila.gov/parksandrecreation/findafacility/RecCenterDetails.aspx?ID=745", "ZIPCODE": 19111.0, "FEATURE": "Pool", "FACILITY": "Fox Chase Playground"}},{"geometry": {"type": "Point", "coordinates": [-74.99141900084581, 40.06809366210619]}, "type": "Feature", "id": 21, "properties": {"ADDRESS": "3694 CHESTERFIELD RD", "LINK": "http://www.phila.gov/parksandrecreation/findafacility/RecCenterDetails.aspx?ID=794", "ZIPCODE": 19114.0, "FEATURE": "Pool", "FACILITY": "Mitchell Playground"}},{"geometry": {"type": "Point", "coordinates": [-75.07655215969051, 40.05616804232085]}, "type": "Feature", "id": 22, "properties": {"ADDRESS": "1400 COTTMAN AVE", "LINK": "http://www.phila.gov/parksandrecreation/findafacility/RecCenterDetails.aspx?ID=768", "ZIPCODE": 19111.0, "FEATURE": "Pool", "FACILITY": "Jardel Recreation Center"}},{"geometry": {"type": "Point", "coordinates": [-75.00265206222277, 40.05153515173759]}, "type": "Feature", "id": 23, "properties": {"ADDRESS": "9050 TORRESDALE AVE", "LINK": "http://www.phila.gov/parksandrecreation/findafacility/RecCenterDetails.aspx?ID=767", "ZIPCODE": 19114.0, "FEATURE": "Pool", "FACILITY": "Jacobs Playground"}},{"geometry": {"type": "Point", "coordinates": [-75.16275833192935, 40.05341658059191]}, "type": "Feature", "id": 24, "properties": {"ADDRESS": "6101 ARDLEIGH ST", "LINK": "http://www.phila.gov/parksandrecreation/findafacility/RecCenterDetails.aspx?ID=708", "ZIPCODE": 19138.0, "FEATURE": "Pool", "FACILITY": "Awbury Recreation Center"}},{"geometry": {"type": "Point", "coordinates": [-75.14674603836927, 40.05050997863558]}, "type": "Feature", "id": 25, "properties": {"ADDRESS": "1610 CHELTEN AVE", "LINK": "http://www.phila.gov/parksandrecreation/findafacility/RecCenterDetails.aspx?ID=797", "ZIPCODE": 19126.0, "FEATURE": "Pool", "FACILITY": "Morris Estate Recreation Center"}},{"geometry": {"type": "Point", "coordinates": [-75.10117997463664, 40.04574243162602]}, "type": "Feature", "id": 26, "properties": {"ADDRESS": "6000 RISING SUN AVE", "LINK": "http://www.phila.gov/parksandrecreation/findafacility/RecCenterDetails.aspx?ID=777", "ZIPCODE": 19111.0, "FEATURE": "Pool", "FACILITY": "Lawncrest Recreation Center"}},{"geometry": {"type": "Point", "coordinates": [-75.0430148113237, 40.04138506452426]}, "type": "Feature", "id": 27, "properties": {"ADDRESS": "7437 ROWLAND AVE", "LINK": "http://www.phila.gov/parksandrecreation/findafacility/", "ZIPCODE": 19136.0, "FEATURE": "Pool", "FACILITY": "Lincoln Pool"}},{"geometry": {"type": "Point", "coordinates": [-75.15631722965172, 40.04167010717375]}, "type": "Feature", "id": 28, "properties": {"ADDRESS": "2109 W CHEW AVE", "LINK": "http://www.phila.gov/parksandrecreation/findafacility/RecCenterDetails.aspx?ID=712", "ZIPCODE": 19138.0, "FEATURE": "Pool", "FACILITY": "Belfield Recreation Center"}},{"geometry": {"type": "Point", "coordinates": [-75.07037084518225, 40.03830060948416]}, "type": "Feature", "id": 29, "properties": {"ADDRESS": "1601 HELLERMAN ST", "LINK": "http://www.phila.gov/parksandrecreation/findafacility/RecCenterDetails.aspx?ID=803", "ZIPCODE": 19149.0, "FEATURE": "Pool", "FACILITY": "Myers, Max Playground"}},{"geometry": {"type": "Point", "coordinates": [-75.15322178647426, 39.91558028780603]}, "type": "Feature", "id": 30, "properties": {"ADDRESS": "300 SHUNK ST", "LINK": "http://www.phila.gov/parksandrecreation/findafacility/RecCenterDetails.aspx?ID=801", "ZIPCODE": 19148.0, "FEATURE": "Pool", "FACILITY": "Murphy Recreation Center"}},{"geometry": {"type": "Point", "coordinates": [-75.17904787463638, 39.915807999583926]}, "type": "Feature", "id": 31, "properties": {"ADDRESS": "1800 JOHNSTON ST", "LINK": "http://www.phila.gov/parksandrecreation/findafacility/RecCenterDetails.aspx?ID=711", "ZIPCODE": 19145.0, "FEATURE": "Pool", "FACILITY": "Barry Playground"}},{"geometry": {"type": "Point", "coordinates": [-75.23035840829529, 39.91571065915447]}, "type": "Feature", "id": 32, "properties": {"ADDRESS": "6801 GROVERS AVE", "LINK": "http://www.phila.gov/parksandrecreation/findafacility/RecCenterDetails.aspx?ID=740", "ZIPCODE": 19142.0, "FEATURE": "Pool", "FACILITY": "Finnegan, James Playground"}},{"geometry": {"type": "Point", "coordinates": [-75.09738435898969, 39.99050525348296]}, "type": "Feature", "id": 33, "properties": {"ADDRESS": "2501 E TIOGA ST", "LINK": "http://www.phila.gov/parksandrecreation/findafacility/RecCenterDetails.aspx?ID=825", "ZIPCODE": 19134.0, "FEATURE": "Pool", "FACILITY": "Samuel Recreation Center"}},{"geometry": {"type": "Point", "coordinates": [-75.1328216864557, 39.98831900270289]}, "type": "Feature", "id": 34, "properties": {"ADDRESS": "2502-12 N HOWARD ST", "LINK": "http://www.phila.gov/parksandrecreation/findafacility/RecCenterDetails.aspx?ID=848", "ZIPCODE": 19133.0, "FEATURE": "Pool", "FACILITY": "Waterloo Playground"}},{"geometry": {"type": "Point", "coordinates": [-75.18754425378762, 39.9888981785671]}, "type": "Feature", "id": 35, "properties": {"ADDRESS": "2102 N 33RD ST", "LINK": "http://www.phila.gov/parksandrecreation/findafacility/", "ZIPCODE": 19121.0, "FEATURE": "Pool", "FACILITY": "Mander Playground"}},{"geometry": {"type": "Point", "coordinates": [-75.17460620591162, 39.98723017381221]}, "type": "Feature", "id": 36, "properties": {"ADDRESS": "2501-59 DIAMOND ST", "LINK": "http://www.phila.gov/parksandrecreation/findafacility/RecCenterDetails.aspx?ID=750", "ZIPCODE": 19121.0, "FEATURE": "Pool", "FACILITY": "Gathers, Hank YAC"}},{"geometry": {"type": "Point", "coordinates": [-75.15154094564951, 39.98584559551632]}, "type": "Feature", "id": 37, "properties": {"ADDRESS": "1101 W SUSQUEHANNA AVE", "LINK": "http://www.phila.gov/parksandrecreation/findafacility/RecCenterDetails.aspx?ID=810", "ZIPCODE": 19122.0, "FEATURE": "Pool", "FACILITY": "Penrose Playground"}},{"geometry": {"type": "Point", "coordinates": [-75.11313888870733, 39.98407509860849]}, "type": "Feature", "id": 38, "properties": {"ADDRESS": "2901 CEDAR ST", "LINK": "http://www.phila.gov/parksandrecreation/findafacility/RecCenterDetails.aspx?ID=726", "ZIPCODE": 19134.0, "FEATURE": "Pool", "FACILITY": "Cohocksink Recreation Center"}},{"geometry": {"type": "Point", "coordinates": [-75.16043970384497, 39.981630189529]}, "type": "Feature", "id": 39, "properties": {"ADDRESS": "1817-59 N 16TH ST", "LINK": "http://www.phila.gov/parksandrecreation/findafacility/RecCenterDetails.aspx?ID=704", "ZIPCODE": 19121.0, "FEATURE": "Pool", "FACILITY": "Amos Playground"}},{"geometry": {"type": "Point", "coordinates": [-75.11849782224652, 39.98050075263846]}, "type": "Feature", "id": 40, "properties": {"ADDRESS": "2600 ARAMINGO AVE", "LINK": "http://www.phila.gov/parksandrecreation/findafacility/RecCenterDetails.aspx?ID=724", "ZIPCODE": 19125.0, "FEATURE": "Pool", "FACILITY": "Cione Playground"}},{"geometry": {"type": "Point", "coordinates": [-75.16949043844834, 39.980337709860585]}, "type": "Feature", "id": 41, "properties": {"ADDRESS": "2101-35 CECIL B MOORE AVE", "LINK": "http://www.phila.gov/parksandrecreation/findafacility/RecCenterDetails.aspx?ID=772", "ZIPCODE": 19121.0, "FEATURE": "Pool", "FACILITY": "King, Martin Luther Recreation Center"}},{"geometry": {"type": "Point", "coordinates": [-75.2090574512362, 39.9789399318086]}, "type": "Feature", "id": 42, "properties": {"ADDRESS": "4200 LANSDOWNE DR", "LINK": "http://www.phila.gov/parksandrecreation/findafacility/", "ZIPCODE": 19131.0, "FEATURE": "Pool", "FACILITY": "Kelly Pool"}},{"geometry": {"type": "Point", "coordinates": [-75.1793841770382, 39.97788979662845]}, "type": "Feature", "id": 43, "properties": {"ADDRESS": "1401-55 N 27TH ST", "LINK": "http://www.phila.gov/parksandrecreation/findafacility/RecCenterDetails.aspx?ID=707", "ZIPCODE": 19121.0, "FEATURE": "Pool", "FACILITY": "Athletic Recreation Center"}},{"geometry": {"type": "Point", "coordinates": [-75.21256907472929, 39.977844118454584]}, "type": "Feature", "id": 44, "properties": {"ADDRESS": "1701 BELMONT AVE", "LINK": "http://www.phila.gov/parksandrecreation/findafacility/RecCenterDetails.aspx?ID=717", "ZIPCODE": 19131.0, "FEATURE": "Pool", "FACILITY": "Carousel House"}},{"geometry": {"type": "Point", "coordinates": [-75.15099725447682, 39.97544715594729]}, "type": "Feature", "id": 45, "properties": {"ADDRESS": "1501-39 N 10TH ST", "LINK": "http://www.phila.gov/parksandrecreation/findafacility/RecCenterDetails.aspx?ID=864", "ZIPCODE": 19122.0, "FEATURE": "Pool", "FACILITY": "Dendy Recreation Center"}},{"geometry": {"type": "Point", "coordinates": [-75.23118844780329, 39.977101002085824]}, "type": "Feature", "id": 46, "properties": {"ADDRESS": "5431-43 LANSDOWNE AVE", "LINK": "http://www.phila.gov/parksandrecreation/findafacility/RecCenterDetails.aspx?ID=709", "ZIPCODE": 19131.0, "FEATURE": "Pool", "FACILITY": "Baker Playground"}},{"geometry": {"type": "Point", "coordinates": [-75.14473911406643, 39.97325133753868]}, "type": "Feature", "id": 47, "properties": {"ADDRESS": "1400-52 N 05TH ST", "LINK": "http://www.phila.gov/parksandrecreation/findafacility/RecCenterDetails.aspx?ID=729", "ZIPCODE": 19122.0, "FEATURE": "Pool", "FACILITY": "Cruz Recreation Center"}},{"geometry": {"type": "Point", "coordinates": [-75.13741069308146, 39.97283785618121]}, "type": "Feature", "id": 48, "properties": {"ADDRESS": "250 S 63RD ST", "LINK": "http://www.phila.gov/parksandrecreation/findafacility/RecCenterDetails.aspx?ID=885", "ZIPCODE": 19139.0, "FEATURE": "Pool", "FACILITY": "Cobbs Creek Recreation Center"}},{"geometry": {"type": "Point", "coordinates": [-75.12732370659323, 39.97208543526909]}, "type": "Feature", "id": 49, "properties": {"ADDRESS": "1202-32 E MONTGOMERY AVE", "LINK": "http://www.phila.gov/parksandrecreation/findafacility/RecCenterDetails.aspx?ID=741", "ZIPCODE": 19125.0, "FEATURE": "Pool", "FACILITY": "Fishtown (Lederer) Recreation Center"}},{"geometry": {"type": "Point", "coordinates": [-75.1664240802057, 39.968415003599745]}, "type": "Feature", "id": 50, "properties": {"ADDRESS": "1737-39 FRANCIS ST", "LINK": "http://www.phila.gov/parksandrecreation/findafacility/RecCenterDetails.aspx?ID=746", "ZIPCODE": 19121.0, "FEATURE": "Pool", "FACILITY": "Francisville Playground"}},{"geometry": {"type": "Point", "coordinates": [-75.15074521444753, 39.96785488103633]}, "type": "Feature", "id": 51, "properties": {"ADDRESS": "800 N 08TH ST", "LINK": "http://www.phila.gov/parksandrecreation/findafacility/RecCenterDetails.aspx?ID=733", "ZIPCODE": 19123.0, "FEATURE": "Pool", "FACILITY": "East Poplar Playground"}},{"geometry": {"type": "Point", "coordinates": [-75.23422256689649, 39.96789917238212]}, "type": "Feature", "id": 52, "properties": {"ADDRESS": "5700 HAVERFORD AVE", "LINK": "http://www.phila.gov/parksandrecreation/findafacility/RecCenterDetails.aspx?ID=830", "ZIPCODE": 19131.0, "FEATURE": "Pool", "FACILITY": "Shepard Recreation Center"}},{"geometry": {"type": "Point", "coordinates": [-75.20039175478665, 39.965985647849465]}, "type": "Feature", "id": 53, "properties": {"ADDRESS": "700-14 N 39TH ST", "LINK": "http://www.phila.gov/parksandrecreation/findafacility/", "ZIPCODE": 19104.0, "FEATURE": "Pool", "FACILITY": "39Th St & Olive Playground"}},{"geometry": {"type": "Point", "coordinates": [-75.21607476820557, 39.965829082021024]}, "type": "Feature", "id": 54, "properties": {"ADDRESS": "743-81 N 48TH ST", "LINK": "http://www.phila.gov/parksandrecreation/findafacility/RecCenterDetails.aspx?ID=793", "ZIPCODE": 19139.0, "FEATURE": "Pool", "FACILITY": "Mill Creek Playground"}},{"geometry": {"type": "Point", "coordinates": [-75.14373511665045, 39.96264769673193]}, "type": "Feature", "id": 55, "properties": {"ADDRESS": "313-27 FAIRMOUNT AVE", "LINK": "http://www.phila.gov/parksandrecreation/findafacility/RecCenterDetails.aspx?ID=805", "ZIPCODE": 19123.0, "FEATURE": "Pool", "FACILITY": "Northern Liberties Recreation Center"}},{"geometry": {"type": "Point", "coordinates": [-75.21024997860094, 39.961678187513165]}, "type": "Feature", "id": 56, "properties": {"ADDRESS": "4310 HAVERFORD AVE", "LINK": "http://www.phila.gov/parksandrecreation/findafacility/RecCenterDetails.aspx?ID=778", "ZIPCODE": 19101.0, "FEATURE": "Pool", "FACILITY": "Lee Cultural Center"}},{"geometry": {"type": "Point", "coordinates": [-75.2388309422821, 39.956416888658815]}, "type": "Feature", "id": 57, "properties": {"ADDRESS": "5825 SPRUCE ST", "LINK": "http://www.phila.gov/parksandrecreation/findafacility/", "ZIPCODE": 19139.0, "FEATURE": "Pool", "FACILITY": "Sayre-Morris Recreation Center"}},{"geometry": {"type": "Point", "coordinates": [-75.23445025329468, 39.948762746113175]}, "type": "Feature", "id": 58, "properties": {"ADDRESS": "728 S 55TH ST", "LINK": "http://www.phila.gov/parksandrecreation/findafacility/RecCenterDetails.aspx?ID=722", "ZIPCODE": 19143.0, "FEATURE": "Pool", "FACILITY": "Christy Recreation Center"}},{"geometry": {"type": "Point", "coordinates": [-75.18331534432724, 39.94600815387806]}, "type": "Feature", "id": 59, "properties": {"ADDRESS": "2601-13 SOUTH ST", "LINK": "http://www.phila.gov/parksandrecreation/findafacility/", "ZIPCODE": 19146.0, "FEATURE": "Pool", "FACILITY": "O'Connor Pool"}},{"geometry": {"type": "Point", "coordinates": [-75.21572696787958, 39.9431020543175]}, "type": "Feature", "id": 60, "properties": {"ADDRESS": "4901 KINGSESSING AVE", "LINK": "http://www.phila.gov/parksandrecreation/findafacility/RecCenterDetails.aspx?ID=773", "ZIPCODE": 19143.0, "FEATURE": "Pool", "FACILITY": "Kingsessing Recreation Center"}},{"geometry": {"type": "Point", "coordinates": [-75.17160508035239, 39.942031711789966]}, "type": "Feature", "id": 61, "properties": {"ADDRESS": "740 S 17TH ST", "LINK": "http://www.phila.gov/parksandrecreation/findafacility/RecCenterDetails.aspx?ID=706", "ZIPCODE": 19146.0, "FEATURE": "Pool", "FACILITY": "Anderson, Marian Recreation Center"}},{"geometry": {"type": "Point", "coordinates": [-75.21126251657886, 39.940241054336575]}, "type": "Feature", "id": 62, "properties": {"ADDRESS": "147 MASTER ST", "LINK": "http://www.phila.gov/parksandrecreation/findafacility/RecCenterDetails.aspx?ID=756", "ZIPCODE": 19122.0, "FEATURE": "Pool", "FACILITY": "Hancock Playground"}},{"geometry": {"type": "Point", "coordinates": [-75.16306184078452, 39.93842289528953]}, "type": "Feature", "id": 63, "properties": {"ADDRESS": "1200 CARPENTER ST", "LINK": "http://www.phila.gov/parksandrecreation/findafacility/RecCenterDetails.aspx?ID=758", "ZIPCODE": 19147.0, "FEATURE": "Pool", "FACILITY": "Hawthorne Cultural Center"}},{"geometry": {"type": "Point", "coordinates": [-75.17349091862974, 39.93842658051972]}, "type": "Feature", "id": 64, "properties": {"ADDRESS": "1800 WASHINGTON AVE", "LINK": "http://www.phila.gov/parksandrecreation/findafacility/RecCenterDetails.aspx?ID=721", "ZIPCODE": 19146.0, "FEATURE": "Pool", "FACILITY": "Chew Playground"}},{"geometry": {"type": "Point", "coordinates": [-75.19758691797854, 39.936169309655845]}, "type": "Feature", "id": 65, "properties": {"ADDRESS": "1400 S 32ND ST", "LINK": "http://www.phila.gov/parksandrecreation/findafacility/", "ZIPCODE": 19146.0, "FEATURE": "Pool", "FACILITY": "Stinger Square Playground"}},{"geometry": {"type": "Point", "coordinates": [-75.22810389251822, 39.93478531539442]}, "type": "Feature", "id": 66, "properties": {"ADDRESS": "5800 CHESTER AVE", "LINK": "http://www.phila.gov/parksandrecreation/findafacility/RecCenterDetails.aspx?ID=802", "ZIPCODE": 19143.0, "FEATURE": "Pool", "FACILITY": "Myers, Francis Recreation Center"}},{"geometry": {"type": "Point", "coordinates": [-75.18952147672606, 39.931296513148645]}, "type": "Feature", "id": 67, "properties": {"ADDRESS": "2600 MORRIS ST", "LINK": "http://www.phila.gov/parksandrecreation/findafacility/RecCenterDetails.aspx?ID=844", "ZIPCODE": 19145.0, "FEATURE": "Pool", "FACILITY": "Vare Recreation Center"}},{"geometry": {"type": "Point", "coordinates": [-75.15737515227869, 39.9229635950156]}, "type": "Feature", "id": 68, "properties": {"ADDRESS": "609-39 SNYDER AVE", "LINK": "http://www.phila.gov/parksandrecreation/findafacility/RecCenterDetails.aspx?ID=743", "ZIPCODE": 19148.0, "FEATURE": "Pool", "FACILITY": "Ford Playground P.A.L"}},{"geometry": {"type": "Point", "coordinates": [-75.1678060176611, 39.965786390180085]}, "type": "Feature", "id": 69, "properties": {"ADDRESS": "1800 WALLACE ST", "LINK": "http://www.phila.gov/parksandrecreation/findafacility/RecCenterDetails.aspx?ID=725", "ZIPCODE": 19130.0, "FEATURE": "Spray Ground", "FACILITY": "Clemente Playground"}},{"geometry": {"type": "Point", "coordinates": [-75.1785961885973, 39.97732933743113]}, "type": "Feature", "id": 70, "properties": {"ADDRESS": "1401-55 N 27TH ST", "LINK": "http://www.phila.gov/parksandrecreation/findafacility/RecCenterDetails.aspx?ID=707", "ZIPCODE": 19121.0, "FEATURE": "Spray Ground", "FACILITY": "Athletic Recreation Center"}},{"geometry": {"type": "Point", "coordinates": [-75.14830039916808, 39.93068531085468]}, "type": "Feature", "id": 71, "properties": {"ADDRESS": "1322 S 02ND ST", "LINK": "http://www.phila.gov/parksandrecreation/findafacility/RecCenterDetails.aspx?ID=761", "ZIPCODE": 19147.0, "FEATURE": "Spray Ground", "FACILITY": "Herron Playground"}},{"geometry": {"type": "Point", "coordinates": [-75.10494082908912, 40.01466831138162]}, "type": "Feature", "id": 72, "properties": {"ADDRESS": "1101 E CAYUGA ST", "LINK": "http://www.phila.gov/parksandrecreation/findafacility/", "ZIPCODE": 19124.0, "FEATURE": "Spray Ground", "FACILITY": "Ferko Playground"}},{"geometry": {"type": "Point", "coordinates": [-75.22659211628824, 39.98264908316289]}, "type": "Feature", "id": 73, "properties": {"ADDRESS": "5301 PARKSIDE AVE", "LINK": "http://www.phila.gov/parksandrecreation/findafacility/RecCenterDetails.aspx?ID=873", "ZIPCODE": 19131.0, "FEATURE": "Spray Ground", "FACILITY": "Parkside-Evans Recreation Center"}},{"geometry": {"type": "Point", "coordinates": [-75.16863238901186, 40.04555447931668]}, "type": "Feature", "id": 74, "properties": {"ADDRESS": "5826 MC MAHON AVE", "LINK": "http://www.phila.gov/parksandrecreation/findafacility/RecCenterDetails.aspx?ID=849", "ZIPCODE": 19144.0, "FEATURE": "Spray Ground", "FACILITY": "Waterview Recreation Center"}},{"geometry": {"type": "Point", "coordinates": [-74.96994255969811, 40.102687275649444]}, "type": "Feature", "id": 75, "properties": {"ADDRESS": "3102 MECHANICSVILLE RD", "LINK": "http://www.phila.gov/parksandrecreation/findafacility/RecCenterDetails.aspx?ID=769", "ZIPCODE": 19154.0, "FEATURE": "Spray Ground", "FACILITY": "Junod Park"}},{"geometry": {"type": "Point", "coordinates": [-75.18692387131307, 39.92548797846393]}, "type": "Feature", "id": 76, "properties": {"ADDRESS": "2200 S 24TH ST", "LINK": "http://www.phila.gov/parksandrecreation/findafacility/RecCenterDetails.aspx?ID=836", "ZIPCODE": 19145.0, "FEATURE": "Spray Ground", "FACILITY": "Smith Playground"}},{"geometry": {"type": "Point", "coordinates": [-75.20926522262194, 39.94160539479351]}, "type": "Feature", "id": 77, "properties": {"ADDRESS": "4740 Woodland Ave", "LINK": "http://www.phila.gov/parksandrecreation/findafacility/RecCenterDetails.aspx?ID=860", "ZIPCODE": 19143.0, "FEATURE": "Spray Ground", "FACILITY": "48th & Woodland Playground"}}]}